IRIDIUM 144             
1 43249U 18030A   26015.36777028  .00000126  00000+0  37874-4 0  9999
2 43249  86.3983 354.2842 0002214  83.3700 276.7748 14.34216990408236
IRIDIUM 149             
1 43250U 18030B   26015.86249342  .00000012  00000+0 -26473-5 0  9998
2 43250  86.3979 354.0465 0002102  86.5884 273.5552 14.34217672408322
IRIDIUM 157             
1 43251U 18030C   26015.46290355  .00000161  00000+0  50310-4 0  9995
2 43251  86.3980 354.2629 0002130  87.4184 272.7255 14.34216290408240
IRIDIUM 140             
1 43252U 18030D   26015.48193705  .00000057  00000+0  13469-4 0  9997
2 43252  86.3982 354.2680 0002291  84.9782 275.1675 14.34216638408300
IRIDIUM 145             
1 43253U 18030E   26015.46924959  .00000182  00000+0  57790-4 0  9993
2 43253  86.3980 354.2457 0002304  78.4647 281.6808 14.34217029408231
IRIDIUM 146             
1 43254U 18030F   26015.86883612  .00000012  00000+0 -28815-5 0  9998
2 43254  86.3982 354.0918 0002069  81.8982 278.2448 14.34217457408307
IRIDIUM 148             
1 43255U 18030G   26015.41851155 -.00000008  00000+0 -10072-4 0  9998
2 43255  86.3981 354.3208 0001983  85.5570 274.5852 14.34217602408276
IRIDIUM 142             
1 43256U 18030H   26015.87518818  .00000194  00000+0  62224-4 0  9995
2 43256  86.3981 354.0243 0002281  77.6187 282.5264 14.34218340408301
